      2.10          N: GNSS NAV DATA                        RINEX VERSION / TYPE
fic2rin                                 08/13/2018 00:06:54 PGM / RUN BY / DATE
                                                            END OF HEADER
20 18  8 12 20  0  0.0 5.140402354300e-04 6.821210263297e-13 0.000000000000e+00
    5.200000000000e+01-1.266250000000e+02 5.066282459571e-09-2.929731381266e+00
   -6.418675184250e-06 4.108980880119e-03 1.099333167076e-05 5.153683099747e+03
    7.200000000000e+04 2.793967723846e-08 3.089063134782e+00 5.960464477539e-08
    9.293139085573e-01 1.501250000000e+02 2.069663854424e+00-8.278916278665e-09
   -2.057228548969e-10 1.000000000000e+00 2.014000000000e+03 0.000000000000e+00
    2.400000000000e+00 0.000000000000e+00-8.381903171539e-09 5.200000000000e+01
    6.480600000000e+04 4.000000000000e+00
28 18  8 12 20  0  0.0 7.377839647233e-04 2.501110429876e-12 0.000000000000e+00
    8.000000000000e+01 3.778125000000e+01 3.700868441740e-09 2.730500036629e-01
    1.894310116768e-06 1.945846795570e-02 1.295469701290e-05 5.153688707352e+03
    7.200000000000e+04-2.663582563400e-07 1.457900753018e-01-1.471489667892e-07
    9.855469580896e-01 1.480000000000e+02-1.516555759983e+00-7.862113202858e-09
   -2.946551307118e-10 1.000000000000e+00 2.014000000000e+03 0.000000000000e+00
    4.850000000000e+00 0.000000000000e+00-1.117587089539e-08 8.000000000000e+01
    6.480600000000e+04 4.000000000000e+00
 2 18  8 12 20  0  0.0 2.998625859618e-05-1.125499693444e-11 0.000000000000e+00
    9.800000000000e+01-6.593750000000e+01 5.247718588543e-09-2.512266516979e+00
   -3.285706043243e-06 1.798454555683e-02 7.804483175278e-07 5.153791423798e+03
    7.200000000000e+04 2.477318048477e-07 2.095722163172e+00 8.940696716309e-08
    9.511101898085e-01 3.544062500000e+02-1.838642912252e+00-8.559285100009e-09
   -4.000166622996e-11 1.000000000000e+00 2.014000000000e+03 0.000000000000e+00
    2.400000000000e+00 0.000000000000e+00-2.048909664154e-08 9.800000000000e+01
    6.534600000000e+04 4.000000000000e+00
24 18  8 12 20  0  0.0-5.385745316744e-05-4.547473508865e-13 0.000000000000e+00
    8.800000000000e+01-2.859375000000e+01 5.382724212069e-09-2.481484811483e+00
   -1.417472958565e-06 7.091263425536e-03 4.470348358154e-06 5.153622831345e+03
    7.200000000000e+04-2.235174179077e-08-1.032145681193e+00-2.421438694000e-08
    9.406399110279e-01 2.826875000000e+02 5.339859382006e-01-8.494996707854e-09
   -2.457245211269e-10 1.000000000000e+00 2.014000000000e+03 0.000000000000e+00
    3.400000000000e+00 0.000000000000e+00 2.793967723846e-09 8.800000000000e+01
    6.573600000000e+04 4.000000000000e+00
27 18  8 12 19 59 44.0 3.544376231730e-04-2.955857780762e-12 0.000000000000e+00
    1.300000000000e+01 1.164375000000e+02 4.208746739767e-09-6.395281030496e-01
    6.232410669327e-06 6.000437075272e-03 6.405636668205e-06 5.153693504333e+03
    7.198400000000e+04 7.450580596924e-08 1.101773542205e+00 1.117587089539e-08
    9.776155750985e-01 2.646250000000e+02 4.556641379089e-01-8.145696443810e-09
    5.160929259133e-10 1.000000000000e+00 2.014000000000e+03 0.000000000000e+00
    2.400000000000e+00 0.000000000000e+00 1.862645149231e-09 1.300000000000e+01
    6.861600000000e+04 4.000000000000e+00
12 18  8 12 20  0  0.0 3.145243972540e-04-2.614797267597e-12 0.000000000000e+00
    5.800000000000e+01 2.518750000000e+01 3.513360631287e-09 2.255900628802e+00
    1.275911927223e-06 7.088395999745e-03 1.426041126251e-05 5.153548473358e+03
    7.200000000000e+04 2.235174179077e-08 1.227097557424e-01-1.750886440277e-07
    9.862499019300e-01 1.146875000000e+02 1.011627845515e+00-7.435666868228e-09
   -2.814402945465e-10 1.000000000000e+00 2.014000000000e+03 0.000000000000e+00
    2.400000000000e+00 0.000000000000e+00-1.257285475731e-08 5.800000000000e+01
    7.023600000000e+04 4.000000000000e+00
27 18  8 12 21 59 44.0 3.544166684151e-04-2.955857780762e-12 0.000000000000e+00
    1.400000000000e+01 1.152812500000e+02 4.205889477893e-09 4.105264164616e-01
    6.061047315598e-06 5.998955108225e-03 7.202848792076e-06 5.153690565109e+03
    7.918400000000e+04 4.284083843231e-08 1.101714988909e+00 5.960464477539e-08
    9.776193055396e-01 2.512500000000e+02 4.557777159427e-01-8.129267188037e-09
    4.982350392035e-10 1.000000000000e+00 2.014000000000e+03 0.000000000000e+00
    2.400000000000e+00 0.000000000000e+00 1.862645149231e-09 1.400000000000e+01
    7.200600000000e+04 4.000000000000e+00
 1 18  8 12 22  0  0.0-7.577240467072e-05-4.092726157978e-12 0.000000000000e+00
    2.000000000000e+01-6.481250000000e+01 4.703410201628e-09-1.774962914810e+00
   -3.486871719360e-06 8.076544385403e-03 1.471489667892e-06 5.153665212631e+03
    7.920000000000e+04 1.322478055954e-07 2.158408921161e+00-5.960464477539e-08
    9.720711521510e-01 3.535312500000e+02 6.786624943884e-01-8.419636425938e-09
   -2.678683006471e-11 1.000000000000e+00 2.014000000000e+03 0.000000000000e+00
    2.400000000000e+00 0.000000000000e+00 5.587935447693e-09 2.000000000000e+01
    7.200600000000e+04 4.000000000000e+00
 3 18  8 12 22  0  0.0 1.205787993968e-04 5.798028723802e-12 0.000000000000e+00
    1.400000000000e+01-9.734375000000e+01 4.315536902291e-09-2.747223732827e+00
   -5.083158612251e-06 1.640634960495e-03 1.205876469612e-05 5.153710977554e+03
    7.920000000000e+04-1.117587089539e-08-3.082172555098e+00-8.568167686462e-08
    9.618946580420e-01 1.468750000000e+02 5.489931662833e-01-7.908186550570e-09
   -7.821754378894e-11 1.000000000000e+00 2.014000000000e+03 0.000000000000e+00
    2.400000000000e+00 0.000000000000e+00 1.862645149231e-09 1.400000000000e+01
    7.200600000000e+04 4.000000000000e+00
 2 18  8 12 22  0  0.0 2.990523353219e-05-1.125499693444e-11 0.000000000000e+00
    9.900000000000e+01-5.496875000000e+01 5.277005522747e-09-1.462248835208e+00
   -2.324581146240e-06 1.798480539583e-02 1.315027475357e-06 5.153788253784e+03
    7.920000000000e+04 2.011656761169e-07 2.095660705983e+00 3.241002559662e-07
    9.511093442419e-01 3.451250000000e+02-1.838546352344e+00-8.697505143143e-09
   -8.643217167545e-11 1.000000000000e+00 2.014000000000e+03 0.000000000000e+00
    2.400000000000e+00 0.000000000000e+00-2.048909664154e-08 9.900000000000e+01
    7.200600000000e+04 4.000000000000e+00
 5 18  8 12 22  0  0.0-3.283377736807e-06 4.547473508865e-13 0.000000000000e+00
    5.800000000000e+01-9.465625000000e+01 4.715553564591e-09 1.201668034274e+00
   -4.693865776062e-06 5.567955202423e-03 1.250207424164e-05 5.153771322250e+03
    7.920000000000e+04 1.490116119385e-08-3.105048028091e+00 1.192092895508e-07
    9.487799046742e-01 1.333125000000e+02 6.520330507195e-01-8.171411800672e-09
   -1.885792836555e-10 1.000000000000e+00 2.014000000000e+03 0.000000000000e+00
    2.400000000000e+00 0.000000000000e+00-1.117587089539e-08 5.800000000000e+01
    7.200600000000e+04 4.000000000000e+00
 7 18  8 12 22  0  0.0 1.428071409464e-04-6.480149750132e-12 0.000000000000e+00
    7.100000000000e+01-3.662500000000e+01 4.959849454781e-09-2.428479452237e+00
   -1.989305019379e-06 1.202893280424e-02 4.883855581284e-06 5.153641172409e+03
    7.920000000000e+04 1.024454832077e-07-9.711386969448e-01-1.918524503708e-07
    9.575940256006e-01 2.828125000000e+02-2.502526866300e+00-8.272130281715e-09
   -3.117987019532e-10 1.000000000000e+00 2.014000000000e+03 0.000000000000e+00
    2.400000000000e+00 0.000000000000e+00-1.117587089539e-08 7.100000000000e+01
    7.200600000000e+04 4.000000000000e+00
 6 18  8 12 22  0  0.0 3.769518807530e-04-4.320099833421e-12 0.000000000000e+00
    4.100000000000e+01-6.896875000000e+01 4.778770483544e-09-1.578178590319e+00
   -3.514811396599e-06 9.992429986596e-04 2.117827534676e-06 5.153677530289e+03
    7.920000000000e+04-5.215406417847e-08 2.150083733789e+00-2.607703208923e-08
    9.717663663355e-01 3.471562500000e+02-1.056601715748e+00-8.461781038574e-09
   -1.703642392115e-10 1.000000000000e+00 2.014000000000e+03 0.000000000000e+00
    2.400000000000e+00 0.000000000000e+00 4.656612873077e-09 4.100000000000e+01
    7.200600000000e+04 4.000000000000e+00
21 18  8 12 22  0  0.0-3.535421565175e-04 5.684341886081e-12 0.000000000000e+00
    1.300000000000e+01-5.709375000000e+01 5.354865908802e-09 2.732839827805e+00
   -3.078952431679e-06 2.435024781153e-02 2.179294824600e-07 5.153649078369e+03
    7.920000000000e+04 3.129243850708e-07 2.102022787492e+00-1.136213541031e-07
    9.447127305515e-01 3.667187500000e+02-1.536635409273e+00-8.480353240752e-09
   -2.107230631757e-10 1.000000000000e+00 2.014000000000e+03 0.000000000000e+00
    2.400000000000e+00 0.000000000000e+00-1.024454832077e-08 1.300000000000e+01
    7.200600000000e+04 4.000000000000e+00
13 18  8 12 22  0  0.0-9.107869118452e-05 5.684341886081e-13 0.000000000000e+00
    3.300000000000e+01 5.778125000000e+01 4.731625662630e-09-8.381802491603e-01
    2.989545464516e-06 3.312074462883e-03 7.407739758492e-06 5.153661151886e+03
    7.920000000000e+04-4.656612873077e-08-1.916101726928e+00 4.097819328308e-08
    9.680109371296e-01 2.371562500000e+02 1.499463976042e+00-8.238914612435e-09
    4.832344143673e-10 1.000000000000e+00 2.014000000000e+03 0.000000000000e+00
    2.400000000000e+00 0.000000000000e+00-1.117587089539e-08 3.300000000000e+01
    7.200600000000e+04 4.000000000000e+00
11 18  8 12 22  0  0.0-7.251161150634e-04 2.160049916711e-12 0.000000000000e+00
    1.800000000000e+01 4.031250000000e+01 6.036680023382e-09-2.424703331518e+00
    2.335757017136e-06 1.704707148019e-02-4.786998033524e-07 5.153650501251e+03
    7.920000000000e+04 1.303851604462e-07 1.726156472774e+00 1.955777406693e-07
    9.059764782197e-01 3.527187500000e+02 1.796877756794e+00-8.935372194118e-09
    3.157274370293e-10 1.000000000000e+00 2.014000000000e+03 0.000000000000e+00
    2.400000000000e+00 0.000000000000e+00-1.210719347000e-08 1.800000000000e+01
    7.200600000000e+04 4.000000000000e+00
